[Satellite]
VERSION=1.1
NAME=PSAT2 (NO-104)
NICKNAME=PSAT2 (NO-104)
TLE1=1 44354U 19036R   19317.49503046  .00010064  00000-0  15214-3 0  9998
TLE2=2 44354  28.5323   1.1083 0380866 160.9466 200.5802 14.99265470 21176
STATUS=0
